[{"OBJECT_NAME":"IRIDIUM 151","OBJECT_ID":"2017-083E","EPOCH":"2026-04-25T16:36:27.157536","MEAN_MOTION":14.34218171,"ECCENTRICITY":0.00021707,"INCLINATION":86.3986,"RA_OF_ASC_NODE":344.0114,"ARG_OF_PERICENTER":84.5654,"MEAN_ANOMALY":275.5789,"EPHEMERIS_TYPE":0,"CLASSIFICATION_TYPE":"U","NORAD_CAT_ID":43074,"ELEMENT_SET_NO":999,"REV_AT_EPOCH":43661,"BSTAR":3.2971478e-5,"MEAN_MOTION_DOT":1.12e-6,"MEAN_MOTION_DDOT":0},{"OBJECT_NAME":"IRIDIUM 134","OBJECT_ID":"2017-083F","EPOCH":"2026-04-25T17:31:15.179520","MEAN_MOTION":14.34217854,"ECCENTRICITY":0.00022803,"INCLINATION":86.3991,"RA_OF_ASC_NODE":344.0031,"ARG_OF_PERICENTER":86.09,"MEAN_ANOMALY":274.0557,"EPHEMERIS_TYPE":0,"CLASSIFICATION_TYPE":"U","NORAD_CAT_ID":43075,"ELEMENT_SET_NO":999,"REV_AT_EPOCH":43658,"BSTAR":3.0998834e-5,"MEAN_MOTION_DOT":1.07e-6,"MEAN_MOTION_DDOT":0},{"OBJECT_NAME":"IRIDIUM 137","OBJECT_ID":"2017-083G","EPOCH":"2026-04-25T16:09:03.081312","MEAN_MOTION":14.34218498,"ECCENTRICITY":0.00021453,"INCLINATION":86.3995,"RA_OF_ASC_NODE":344.1186,"ARG_OF_PERICENTER":72.6014,"MEAN_ANOMALY":287.5417,"EPHEMERIS_TYPE":0,"CLASSIFICATION_TYPE":"U","NORAD_CAT_ID":43076,"ELEMENT_SET_NO":999,"REV_AT_EPOCH":43664,"BSTAR":4.0967733e-5,"MEAN_MOTION_DOT":1.35e-6,"MEAN_MOTION_DDOT":0},{"OBJECT_NAME":"IRIDIUM 141","OBJECT_ID":"2017-083H","EPOCH":"2026-04-25T17:40:23.047968","MEAN_MOTION":14.34218347,"ECCENTRICITY":0.00020795,"INCLINATION":86.3987,"RA_OF_ASC_NODE":343.9257,"ARG_OF_PERICENTER":86.9119,"MEAN_ANOMALY":273.2315,"EPHEMERIS_TYPE":0,"CLASSIFICATION_TYPE":"U","NORAD_CAT_ID":43077,"ELEMENT_SET_NO":999,"REV_AT_EPOCH":43665,"BSTAR":4.5720753e-5,"MEAN_MOTION_DOT":1.48e-6,"MEAN_MOTION_DDOT":0},{"OBJECT_NAME":"IRIDIUM 153","OBJECT_ID":"2017-083J","EPOCH":"2026-04-25T19:52:27.396768","MEAN_MOTION":14.34217791,"ECCENTRICITY":0.00021098,"INCLINATION":86.3936,"RA_OF_ASC_NODE":312.3783,"ARG_OF_PERICENTER":94.8849,"MEAN_ANOMALY":265.2588,"EPHEMERIS_TYPE":0,"CLASSIFICATION_TYPE":"U","NORAD_CAT_ID":43078,"ELEMENT_SET_NO":999,"REV_AT_EPOCH":43777,"BSTAR":8.204256e-6,"MEAN_MOTION_DOT":4.3e-7,"MEAN_MOTION_DDOT":0},{"OBJECT_NAME":"IRIDIUM 131","OBJECT_ID":"2017-083K","EPOCH":"2026-04-25T17:22:07.167648","MEAN_MOTION":14.34217546,"ECCENTRICITY":0.00020865,"INCLINATION":86.3996,"RA_OF_ASC_NODE":344.1137,"ARG_OF_PERICENTER":85.6048,"MEAN_ANOMALY":274.5386,"EPHEMERIS_TYPE":0,"CLASSIFICATION_TYPE":"U","NORAD_CAT_ID":43079,"ELEMENT_SET_NO":999,"REV_AT_EPOCH":43658,"BSTAR":8.102483e-6,"MEAN_MOTION_DOT":4.2e-7,"MEAN_MOTION_DDOT":0},{"OBJECT_NAME":"IRIDIUM 144","OBJECT_ID":"2018-030A","EPOCH":"2026-04-25T15:00:11.665728","MEAN_MOTION":14.34217217,"ECCENTRICITY":0.00022378,"INCLINATION":86.3934,"RA_OF_ASC_NODE":312.3937,"ARG_OF_PERICENTER":86.2119,"MEAN_ANOMALY":273.9332,"EPHEMERIS_TYPE":0,"CLASSIFICATION_TYPE":"U","NORAD_CAT_ID":43249,"ELEMENT_SET_NO":999,"REV_AT_EPOCH":42260,"BSTAR":1.0249798e-5,"MEAN_MOTION_DOT":4.8e-7,"MEAN_MOTION_DDOT":0},{"OBJECT_NAME":"IRIDIUM 149","OBJECT_ID":"2018-030B","EPOCH":"2026-04-25T15:09:19.652544","MEAN_MOTION":14.34217325,"ECCENTRICITY":0.00020723,"INCLINATION":86.3934,"RA_OF_ASC_NODE":312.3587,"ARG_OF_PERICENTER":90.0417,"MEAN_ANOMALY":270.1017,"EPHEMERIS_TYPE":0,"CLASSIFICATION_TYPE":"U","NORAD_CAT_ID":43250,"ELEMENT_SET_NO":999,"REV_AT_EPOCH":42262,"BSTAR":1.1293551e-5,"MEAN_MOTION_DOT":5.1e-7,"MEAN_MOTION_DDOT":0},{"OBJECT_NAME":"IRIDIUM 157","OBJECT_ID":"2018-030C","EPOCH":"2026-04-25T22:18:35.489088","MEAN_MOTION":14.34217687,"ECCENTRICITY":0.00021638,"INCLINATION":86.3935,"RA_OF_ASC_NODE":312.2859,"ARG_OF_PERICENTER":89.21,"MEAN_ANOMALY":270.9344,"EPHEMERIS_TYPE":0,"CLASSIFICATION_TYPE":"U","NORAD_CAT_ID":43251,"ELEMENT_SET_NO":999,"REV_AT_EPOCH":42264,"BSTAR":1.2131391e-5,"MEAN_MOTION_DOT":5.4e-7,"MEAN_MOTION_DDOT":0},{"OBJECT_NAME":"IRIDIUM 140","OBJECT_ID":"2018-030D","EPOCH":"2026-04-25T22:45:59.643936","MEAN_MOTION":14.34217549,"ECCENTRICITY":0.00022246,"INCLINATION":86.3936,"RA_OF_ASC_NODE":312.2906,"ARG_OF_PERICENTER":88.9657,"MEAN_ANOMALY":271.1793,"EPHEMERIS_TYPE":0,"CLASSIFICATION_TYPE":"U","NORAD_CAT_ID":43252,"ELEMENT_SET_NO":999,"REV_AT_EPOCH":42270,"BSTAR":1.7886632e-5,"MEAN_MOTION_DOT":7.0e-7,"MEAN_MOTION_DDOT":0},{"OBJECT_NAME":"IRIDIUM 145","OBJECT_ID":"2018-030E","EPOCH":"2026-04-25T22:27:43.521696","MEAN_MOTION":14.34217773,"ECCENTRICITY":0.00023704,"INCLINATION":86.3936,"RA_OF_ASC_NODE":312.2684,"ARG_OF_PERICENTER":82.5727,"MEAN_ANOMALY":277.5738,"EPHEMERIS_TYPE":0,"CLASSIFICATION_TYPE":"U","NORAD_CAT_ID":43253,"ELEMENT_SET_NO":999,"REV_AT_EPOCH":42263,"BSTAR":1.5593178e-5,"MEAN_MOTION_DOT":6.3e-7,"MEAN_MOTION_DDOT":0},{"OBJECT_NAME":"IRIDIUM 146","OBJECT_ID":"2018-030F","EPOCH":"2026-04-25T18:39:23.493600","MEAN_MOTION":14.34217753,"ECCENTRICITY":0.00022297,"INCLINATION":86.3935,"RA_OF_ASC_NODE":312.347,"ARG_OF_PERICENTER":86.466,"MEAN_ANOMALY":273.6791,"EPHEMERIS_TYPE":0,"CLASSIFICATION_TYPE":"U","NORAD_CAT_ID":43254,"ELEMENT_SET_NO":999,"REV_AT_EPOCH":42262,"BSTAR":1.4089083e-5,"MEAN_MOTION_DOT":5.9e-7,"MEAN_MOTION_DDOT":0},{"OBJECT_NAME":"IRIDIUM 148","OBJECT_ID":"2018-030G","EPOCH":"2026-04-25T22:55:08.677920","MEAN_MOTION":14.34215592,"ECCENTRICITY":0.00020876,"INCLINATION":86.3937,"RA_OF_ASC_NODE":312.3151,"ARG_OF_PERICENTER":86.2558,"MEAN_ANOMALY":273.8877,"EPHEMERIS_TYPE":0,"CLASSIFICATION_TYPE":"U","NORAD_CAT_ID":43255,"ELEMENT_SET_NO":999,"REV_AT_EPOCH":42268,"BSTAR":1.5365365e-5,"MEAN_MOTION_DOT":6.3e-7,"MEAN_MOTION_DDOT":0},{"OBJECT_NAME":"IRIDIUM 142","OBJECT_ID":"2018-030H","EPOCH":"2026-04-25T22:09:28.643616","MEAN_MOTION":14.34215076,"ECCENTRICITY":0.00022942,"INCLINATION":86.3934,"RA_OF_ASC_NODE":312.2193,"ARG_OF_PERICENTER":84.526,"MEAN_ANOMALY":275.6197,"EPHEMERIS_TYPE":0,"CLASSIFICATION_TYPE":"U","NORAD_CAT_ID":43256,"ELEMENT_SET_NO":999,"REV_AT_EPOCH":42264,"BSTAR":1.2657817e-5,"MEAN_MOTION_DOT":5.5e-7,"MEAN_MOTION_DDOT":0},{"OBJECT_NAME":"IRIDIUM 150","OBJECT_ID":"2018-030J","EPOCH":"2026-04-25T14:41:55.396608","MEAN_MOTION":14.34217794,"ECCENTRICITY":0.00021982,"INCLINATION":86.3936,"RA_OF_ASC_NODE":312.4639,"ARG_OF_PERICENTER":88.4731,"MEAN_ANOMALY":271.6717,"EPHEMERIS_TYPE":0,"CLASSIFICATION_TYPE":"U","NORAD_CAT_ID":43257,"ELEMENT_SET_NO":999,"REV_AT_EPOCH":42262,"BSTAR":4.615191e-6,"MEAN_MOTION_DOT":3.3e-7,"MEAN_MOTION_DDOT":0},{"OBJECT_NAME":"IRIDIUM 143","OBJECT_ID":"2018-030K","EPOCH":"2026-04-25T22:36:51.411744","MEAN_MOTION":14.34218037,"ECCENTRICITY":0.00022616,"INCLINATION":86.394,"RA_OF_ASC_NODE":312.4164,"ARG_OF_PERICENTER":86.3013,"MEAN_ANOMALY":273.8442,"EPHEMERIS_TYPE":0,"CLASSIFICATION_TYPE":"U","NORAD_CAT_ID":43258,"ELEMENT_SET_NO":999,"REV_AT_EPOCH":42260,"BSTAR":1.4342561e-5,"MEAN_MOTION_DOT":6.0e-7,"MEAN_MOTION_DDOT":0},{"OBJECT_NAME":"IRIDIUM 161","OBJECT_ID":"2018-047C","EPOCH":"2026-04-25T23:06:31.995648","MEAN_MOTION":14.43281372,"ECCENTRICITY":0.00020191,"INCLINATION":86.4445,"RA_OF_ASC_NODE":110.3119,"ARG_OF_PERICENTER":90.8742,"MEAN_ANOMALY":269.269,"EPHEMERIS_TYPE":0,"CLASSIFICATION_TYPE":"U","NORAD_CAT_ID":43478,"ELEMENT_SET_NO":999,"REV_AT_EPOCH":41760,"BSTAR":5.4973202e-5,"MEAN_MOTION_DOT":2.05e-6,"MEAN_MOTION_DDOT":0}]
