IRIDIUM 151             
1 43074U 17083E   26115.69198099  .00000112  00000+0  32971-4 0  9992
2 43074  86.3986 344.0114 0002170  84.5654 275.5789 14.34218171436614
IRIDIUM 134             
1 43075U 17083F   26115.73003680  .00000107  00000+0  30999-4 0  9991
2 43075  86.3991 344.0031 0002280  86.0900 274.0557 14.34217854436582
IRIDIUM 137             
1 43076U 17083G   26115.67295233  .00000135  00000+0  40968-4 0  9990
2 43076  86.3995 344.1186 0002145  72.6014 287.5417 14.34218498436642
IRIDIUM 141             
1 43077U 17083H   26115.73637787  .00000148  00000+0  45721-4 0  9998
2 43077  86.3987 343.9257 0002079  86.9119 273.2315 14.34218347436653
IRIDIUM 153             
1 43078U 17083J   26115.82809487  .00000043  00000+0  82043-5 0  9990
2 43078  86.3936 312.3783 0002109  94.8849 265.2588 14.34217791437773
IRIDIUM 131             
1 43079U 17083K   26115.72369407  .00000042  00000+0  81025-5 0  9991
2 43079  86.3996 344.1137 0002086  85.6048 274.5386 14.34217546436584
IRIDIUM 144             
1 43249U 18030A   26115.62513502  .00000048  00000+0  10250-4 0  9996
2 43249  86.3934 312.3937 0002237  86.2119 273.9332 14.34217217422601
IRIDIUM 149             
1 43250U 18030B   26115.63147746  .00000051  00000+0  11294-4 0  9995
2 43250  86.3934 312.3587 0002072  90.0417 270.1017 14.34217325422626
IRIDIUM 157             
1 43251U 18030C   26115.92957742  .00000054  00000+0  12131-4 0  9997
2 43251  86.3935 312.2859 0002163  89.2100 270.9344 14.34217687422643
IRIDIUM 140             
1 43252U 18030D   26115.94860699  .00000070  00000+0  17887-4 0  9995
2 43252  86.3936 312.2906 0002224  88.9657 271.1793 14.34217549422704
IRIDIUM 145             
1 43253U 18030E   26115.93592039  .00000063  00000+0  15593-4 0  9999
2 43253  86.3936 312.2684 0002370  82.5727 277.5738 14.34217773422638
IRIDIUM 146             
1 43254U 18030F   26115.77735525  .00000059  00000+0  14089-4 0  9995
2 43254  86.3935 312.3470 0002229  86.4660 273.6791 14.34217753422627
IRIDIUM 148             
1 43255U 18030G   26115.95496155  .00000063  00000+0  15365-4 0  9992
2 43255  86.3937 312.3151 0002087  86.2558 273.8877 14.34215592422684
IRIDIUM 142             
1 43256U 18030H   26115.92324819  .00000055  00000+0  12658-4 0  9990
2 43256  86.3934 312.2193 0002294  84.5260 275.6197 14.34215076422646
IRIDIUM 150             
1 43257U 18030J   26115.61244672  .00000033  00000+0  46152-5 0  9998
2 43257  86.3936 312.4639 0002198  88.4731 271.6717 14.34217794422626
IRIDIUM 143             
1 43258U 18030K   26115.94226171  .00000060  00000+0  14343-4 0  9995
2 43258  86.3940 312.4164 0002261  86.3013 273.8442 14.34218037422604
IRIDIUM 161             
1 43478U 18047C   26115.96287032  .00000205  00000+0  54973-4 0  9996
2 43478  86.4445 110.3119 0002019  90.8742 269.2690 14.43281372417604
